ONEWEB-0331             
1 49198U 21083N   24202.45046486 -.00006338  00000+0 -16131-1 0  9996
2 49198  87.9147 114.1624 0002253  81.3855 278.7532 13.18635747138180
ONEWEB-0333             
1 49199U 21083P   24202.42020842 -.00000056  00000+0 -18744-3 0  9997
2 49199  87.8924  98.9432 0001887  72.6314 287.5022 13.13471110139443
ONEWEB-0334             
1 49200U 21083Q   24202.60242023  .00000103  00000+0  22126-3 0  9997
2 49200  87.9178  53.0588 0002516  61.2915 298.8471 13.20856074144840
ONEWEB-0335             
1 49201U 21083R   24202.41544454  .00000114  00000+0  27822-3 0  9990
2 49201  87.8925  98.9327 0001726  79.0899 281.0425 13.13468827139450
ONEWEB-0336             
1 49202U 21083S   24202.61381101 -.00001788  00000+0 -49310-2 0  9996
2 49202  87.8921  98.8890 0001881  74.1041 286.0295 13.13480669139478
ONEWEB-0337             
1 49203U 21083T   24202.47086382  .00000361  00000+0  95310-3 0  9990
2 49203  87.8923  98.9161 0001812  79.6384 280.4949 13.13470281139458
ONEWEB-0338             
1 49204U 21083U   24202.60934705  .00000108  00000+0  23459-3 0  9991
2 49204  87.9184  53.0430 0001647  71.7868 288.3445 13.20770383144869
ONEWEB-0339             
1 49205U 21083V   24202.40592375  .00000322  00000+0  84678-3 0  9991
2 49205  87.8921  98.9239 0001737  77.5623 282.5701 13.13470002139420
